{"type": "FeatureCollection", "features": [ {"type": "Feature", "properties": {"norad_id": 57401, "name": "TIANMU-1 09", "group": "weather", "lat": -36.35021953310895, "lon": -142.09475422629978, "alt_km": 491.66825273774884, "timestamp": "2025-12-20T07:33:50.444038+00:00", "meta": {"OBJECT_NAME": "TIANMU-1 09", "OBJECT_ID": "2023-101C", "EPOCH": "2025-12-19T21:11:25.774944", "MEAN_MOTION": 15.28182546, "ECCENTRICITY": 0.00065452, "INCLINATION": 97.2813, "RA_OF_ASC_NODE": 42.8821, "ARG_OF_PERICENTER": 64.5171, "MEAN_ANOMALY": 295.6745, "EPHEMERIS_TYPE": 0, "CLASSIFICATION_TYPE": "U", "NORAD_CAT_ID": 57401, "ELEMENT_SET_NO": 999, "REV_AT_EPOCH": 13424, "BSTAR": 0.00019756528, "MEAN_MOTION_DOT": 5.356e-05, "MEAN_MOTION_DDOT": 0}, "tle": {"line1": "1 57401U 23101C   25353.88293721  .00005356  00000+0  19757-3 0  9992", "line2": "2 57401  97.2813  42.8821 0006545  64.5171 295.6745 15.28182546134242"}}, "geometry": {"type": "Point", "coordinates": [-142.09475422629978, -36.35021953310895]}}, {"type": "Feature", "properties": {"norad_id": 57402, "name": "TIANMU-1 10", "group": "weather", "lat": 27.84770117336821, "lon": 40.284666009836485, "alt_km": 475.41672197473326, "timestamp": "2025-12-20T07:33:50.444048+00:00", "meta": {"OBJECT_NAME": "TIANMU-1 10", "OBJECT_ID": "2023-101D", "EPOCH": "2025-12-19T22:00:45.062208", "MEAN_MOTION": 15.28174323, "ECCENTRICITY": 0.00082626, "INCLINATION": 97.2894, "RA_OF_ASC_NODE": 43.7729, "ARG_OF_PERICENTER": 62.6782, "MEAN_ANOMALY": 297.5298, "EPHEMERIS_TYPE": 0, "CLASSIFICATION_TYPE": "U", "NORAD_CAT_ID": 57402, "ELEMENT_SET_NO": 999, "REV_AT_EPOCH": 13424, "BSTAR": 0.00018720132, "MEAN_MOTION_DOT": 5.072e-05, "MEAN_MOTION_DDOT": 0}, "tle": {"line1": "1 57402U 23101D   25353.91718822  .00005072  00000+0  18720-3 0  9995", "line2": "2 57402  97.2894  43.7729 0008262  62.6782 297.5298 15.28174323134242"}}, "geometry": {"type": "Point", "coordinates": [40.284666009836485, 27.84770117336821]}}, {"type": "Feature", "properties": {"norad_id": 57490, "name": "FENGYUN 3F", "group": "weather", "lat": -40.68626878939827, "lon": -125.08496750603148, "alt_km": 832.3776399870294, "timestamp": "2025-12-20T07:33:50.444058+00:00", "meta": {"OBJECT_NAME": "FENGYUN 3F", "OBJECT_ID": "2023-111A", "EPOCH": "2025-12-19T22:04:10.313184", "MEAN_MOTION": 14.19895297, "ECCENTRICITY": 7.439e-05, "INCLINATION": 98.7075, "RA_OF_ASC_NODE": 62.0969, "ARG_OF_PERICENTER": 113.2374, "MEAN_ANOMALY": 246.8881, "EPHEMERIS_TYPE": 0, "CLASSIFICATION_TYPE": "U", "NORAD_CAT_ID": 57490, "ELEMENT_SET_NO": 999, "REV_AT_EPOCH": 12342, "BSTAR": 4.5920811e-05, "MEAN_MOTION_DOT": 5.4e-07, "MEAN_MOTION_DDOT": 0}, "tle": {"line1": "1 57490U 23111A   25353.91956381  .00000054  00000+0  45921-4 0  9996", "line2": "2 57490  98.7075  62.0969 0000743 113.2374 246.8881 14.19895297123424"}}, "geometry": {"type": "Point", "coordinates": [-125.08496750603148, -40.68626878939827]}}, {"type": "Feature", "properties": {"norad_id": 58584, "name": "ARKTIKA-M 2", "group": "weather", "lat": 12.59436853312679, "lon": -179.46314673263575, "alt_km": 10969.726426375662, "timestamp": "2025-12-20T07:33:50.444070+00:00", "meta": {"OBJECT_NAME": "ARKTIKA-M 2", "OBJECT_ID": "2023-198A", "EPOCH": "2025-12-18T19:26:38.867712", "MEAN_MOTION": 2.00602974, "ECCENTRICITY": 0.68653183, "INCLINATION": 63.225, "RA_OF_ASC_NODE": 174.2298, "ARG_OF_PERICENTER": 268.0801, "MEAN_ANOMALY": 18.8403, "EPHEMERIS_TYPE": 0, "CLASSIFICATION_TYPE": "U", "NORAD_CAT_ID": 58584, "ELEMENT_SET_NO": 999, "REV_AT_EPOCH": 1470, "BSTAR": 0, "MEAN_MOTION_DOT": 2e-06, "MEAN_MOTION_DDOT": 0}, "tle": {"line1": "1 58584U 23198A   25352.81017208  .00000200  00000+0  00000+0 0  9997", "line2": "2 58584  63.2250 174.2298 6865318 268.0801  18.8403  2.00602974 14701"}}, "geometry": {"type": "Point", "coordinates": [-179.46314673263575, 12.59436853312679]}}, {"type": "Feature", "properties": {"norad_id": 58645, "name": "TIANMU-1 11", "group": "weather", "lat": 66.37100471916243, "lon": -149.01077015983557, "alt_km": 490.33738718056065, "timestamp": "2025-12-20T07:33:50.444082+00:00", "meta": {"OBJECT_NAME": "TIANMU-1 11", "OBJECT_ID": "2023-205A", "EPOCH": "2025-12-19T23:11:47.195808", "MEAN_MOTION": 15.24681545, "ECCENTRICITY": 0.0007564, "INCLINATION": 97.3596, "RA_OF_ASC_NODE": 13.463, "ARG_OF_PERICENTER": 279.8747, "MEAN_ANOMALY": 80.1636, "EPHEMERIS_TYPE": 0, "CLASSIFICATION_TYPE": "U", "NORAD_CAT_ID": 58645, "ELEMENT_SET_NO": 999, "REV_AT_EPOCH": 11019, "BSTAR": 0.00017259045, "MEAN_MOTION_DOT": 4.197e-05, "MEAN_MOTION_DDOT": 0}, "tle": {"line1": "1 58645U 23205A   25353.96651847  .00004197  00000+0  17259-3 0  9991", "line2": "2 58645  97.3596  13.4630 0007564 279.8747  80.1636 15.24681545110199"}}, "geometry": {"type": "Point", "coordinates": [-149.01077015983557, 66.37100471916243]}}, {"type": "Feature", "properties": {"norad_id": 58646, "name": "TIANMU-1 12", "group": "weather", "lat": -38.12649257094377, "lon": 19.42960142822405, "alt_km": 496.8616402113121, "timestamp": "2025-12-20T07:33:50.444092+00:00", "meta": {"OBJECT_NAME": "TIANMU-1 12", "OBJECT_ID": "2023-205B", "EPOCH": "2025-12-19T23:51:23.071392", "MEAN_MOTION": 15.24566782, "ECCENTRICITY": 0.00057974, "INCLINATION": 97.3583, "RA_OF_ASC_NODE": 13.293, "ARG_OF_PERICENTER": 258.1967, "MEAN_ANOMALY": 101.8621, "EPHEMERIS_TYPE": 0, "CLASSIFICATION_TYPE": "U", "NORAD_CAT_ID": 58646, "ELEMENT_SET_NO": 999, "REV_AT_EPOCH": 11018, "BSTAR": 0.00018594424, "MEAN_MOTION_DOT": 4.511e-05, "MEAN_MOTION_DDOT": 0}, "tle": {"line1": "1 58646U 23205B   25353.99401703  .00004511  00000+0  18594-3 0  9992", "line2": "2 58646  97.3583  13.2930 0005797 258.1967 101.8621 15.24566782110186"}}, "geometry": {"type": "Point", "coordinates": [19.42960142822405, -38.12649257094377]}}, {"type": "Feature", "properties": {"norad_id": 58647, "name": "TIANMU-1 13", "group": "weather", "lat": 40.86045362021943, "lon": -159.7666303803187, "alt_km": 489.15415826682784, "timestamp": "2025-12-20T07:33:50.444102+00:00", "meta": {"OBJECT_NAME": "TIANMU-1 13", "OBJECT_ID": "2023-205C", "EPOCH": "2025-12-19T23:04:53.217984", "MEAN_MOTION": 15.24609466, "ECCENTRICITY": 0.00062542, "INCLINATION": 97.3611, "RA_OF_ASC_NODE": 13.4654, "ARG_OF_PERICENTER": 234.8718, "MEAN_ANOMALY": 125.1934, "EPHEMERIS_TYPE": 0, "CLASSIFICATION_TYPE": "U", "NORAD_CAT_ID": 58647, "ELEMENT_SET_NO": 999, "REV_AT_EPOCH": 11017, "BSTAR": 0.00018043609, "MEAN_MOTION_DOT": 4.381e-05, "MEAN_MOTION_DDOT": 0}, "tle": {"line1": "1 58647U 23205C   25353.96172706  .00004381  00000+0  18044-3 0  9993", "line2": "2 58647  97.3611  13.4654 0006254 234.8718 125.1934 15.24609466110170"}}, "geometry": {"type": "Point", "coordinates": [-159.7666303803187, 40.86045362021943]}}, {"type": "Feature", "properties": {"norad_id": 58648, "name": "TIANMU-1 14", "group": "weather", "lat": -48.824195941836, "lon": -175.33697950757553, "alt_km": 494.1913652134954, "timestamp": "2025-12-20T07:33:50.444112+00:00", "meta": {"OBJECT_NAME": "TIANMU-1 14", "OBJECT_ID": "2023-205D", "EPOCH": "2025-12-19T22:41:05.762976", "MEAN_MOTION": 15.24592656, "ECCENTRICITY": 0.00069909, "INCLINATION": 97.3543, "RA_OF_ASC_NODE": 12.7912, "ARG_OF_PERICENTER": 240.9269, "MEAN_ANOMALY": 119.1269, "EPHEMERIS_TYPE": 0, "CLASSIFICATION_TYPE": "U", "NORAD_CAT_ID": 58648, "ELEMENT_SET_NO": 999, "REV_AT_EPOCH": 11017, "BSTAR": 0.00018715523, "MEAN_MOTION_DOT": 4.545e-05, "MEAN_MOTION_DDOT": 0}, "tle": {"line1": "1 58648U 23205D   25353.94520559  .00004545  00000+0  18716-3 0  9993", "line2": "2 58648  97.3543  12.7912 0006990 240.9269 119.1269 15.24592656110176"}}, "geometry": {"type": "Point", "coordinates": [-175.33697950757553, -48.824195941836]}}, {"type": "Feature", "properties": {"norad_id": 58660, "name": "TIANMU-1 19", "group": "weather", "lat": -35.60003737567723, "lon": -80.03000928417335, "alt_km": 485.1936479721053, "timestamp": "2025-12-20T07:33:50.444123+00:00", "meta": {"OBJECT_NAME": "TIANMU-1 19", "OBJECT_ID": "2023-208A", "EPOCH": "2025-12-19T22:45:48.479328", "MEAN_MOTION": 15.27973055, "ECCENTRICITY": 0.00044347, "INCLINATION": 97.4395, "RA_OF_ASC_NODE": 104.9719, "ARG_OF_PERICENTER": 221.1774, "MEAN_ANOMALY": 138.9131, "EPHEMERIS_TYPE": 0, "CLASSIFICATION_TYPE": "U", "NORAD_CAT_ID": 58660, "ELEMENT_SET_NO": 999, "REV_AT_EPOCH": 10992, "BSTAR": 0.00023378929, "MEAN_MOTION_DOT": 6.307e-05, "MEAN_MOTION_DDOT": 0}, "tle": {"line1": "1 58660U 23208A   25353.94847777  .00006307  00000+0  23379-3 0  9993", "line2": "2 58660  97.4395 104.9719 0004434 221.1774 138.9131 15.27973055109925"}}, "geometry": {"type": "Point", "coordinates": [-80.03000928417335, -35.60003737567723]}}, {"type": "Feature", "properties": {"norad_id": 58661, "name": "TIANMU-1 20", "group": "weather", "lat": -37.16643011280486, "lon": 111.47338989673742, "alt_km": 484.6214835049723, "timestamp": "2025-12-20T07:33:50.444133+00:00", "meta": {"OBJECT_NAME": "TIANMU-1 20", "OBJECT_ID": "2023-208B", "EPOCH": "2025-12-19T22:18:17.789184", "MEAN_MOTION": 15.29163428, "ECCENTRICITY": 0.00065272, "INCLINATION": 97.4333, "RA_OF_ASC_NODE": 105.4075, "ARG_OF_PERICENTER": 235.5247, "MEAN_ANOMALY": 124.5377, "EPHEMERIS_TYPE": 0, "CLASSIFICATION_TYPE": "U", "NORAD_CAT_ID": 58661, "ELEMENT_SET_NO": 999, "REV_AT_EPOCH": 10999, "BSTAR": 0.0002406798, "MEAN_MOTION_DOT": 6.739e-05, "MEAN_MOTION_DDOT": 0}, "tle": {"line1": "1 58661U 23208B   25353.92937256  .00006739  00000+0  24068-3 0  9999", "line2": "2 58661  97.4333 105.4075 0006527 235.5247 124.5377 15.29163428109995"}}, "geometry": {"type": "Point", "coordinates": [111.47338989673742, -37.16643011280486]}}]}